<?xml version="1.0" encoding="UTF-8"?>
<kml xmlns="http://www.opengis.net/kml/2.2">
  <Document>
    <name>LPN</name>
    <Style id="poly-0288D1-1-102-nodesc-normal">
      <LineStyle>
        <color>ffd18802</color>
        <width>0.001</width>
      </LineStyle>
      <PolyStyle>
        <color>66d18802</color>
        <fill>1</fill>
        <outline>1</outline>
      </PolyStyle>
      <BalloonStyle>
        <text><![CDATA[<h3>$[name]</h3>]]></text>
      </BalloonStyle>
    </Style>
    <Style id="poly-0288D1-1-102-nodesc-highlight">
      <LineStyle>
        <color>ffd18802</color>
        <width>0.0015</width>
      </LineStyle>
      <PolyStyle>
        <color>66d18802</color>
        <fill>1</fill>
        <outline>1</outline>
      </PolyStyle>
      <BalloonStyle>
        <text><![CDATA[<h3>$[name]</h3>]]></text>
      </BalloonStyle>
    </Style>
    <StyleMap id="poly-0288D1-1-102-nodesc">
      <Pair>
        <key>normal</key>
        <styleUrl>#poly-0288D1-1-102-nodesc-normal</styleUrl>
      </Pair>
      <Pair>
        <key>highlight</key>
        <styleUrl>#poly-0288D1-1-102-nodesc-highlight</styleUrl>
      </Pair>
    </StyleMap>
    <Style id="poly-0288D1-1-105-nodesc-normal">
      <LineStyle>
        <color>ffd18802</color>
        <width>0.001</width>
      </LineStyle>
      <PolyStyle>
        <color>69d18802</color>
        <fill>1</fill>
        <outline>1</outline>
      </PolyStyle>
      <BalloonStyle>
        <text><![CDATA[<h3>$[name]</h3>]]></text>
      </BalloonStyle>
    </Style>
    <Style id="poly-0288D1-1-105-nodesc-highlight">
      <LineStyle>
        <color>ffd18802</color>
        <width>0.0015</width>
      </LineStyle>
      <PolyStyle>
        <color>69d18802</color>
        <fill>1</fill>
        <outline>1</outline>
      </PolyStyle>
      <BalloonStyle>
        <text><![CDATA[<h3>$[name]</h3>]]></text>
      </BalloonStyle>
    </Style>
    <StyleMap id="poly-0288D1-1-105-nodesc">
      <Pair>
        <key>normal</key>
        <styleUrl>#poly-0288D1-1-105-nodesc-normal</styleUrl>
      </Pair>
      <Pair>
        <key>highlight</key>
        <styleUrl>#poly-0288D1-1-105-nodesc-highlight</styleUrl>
      </Pair>
    </StyleMap>
    <Style id="poly-0288D1-1-107-nodesc-normal">
      <LineStyle>
        <color>ffd18802</color>
        <width>0.001</width>
      </LineStyle>
      <PolyStyle>
        <color>6bd18802</color>
        <fill>1</fill>
        <outline>1</outline>
      </PolyStyle>
      <BalloonStyle>
        <text><![CDATA[<h3>$[name]</h3>]]></text>
      </BalloonStyle>
    </Style>
    <Style id="poly-0288D1-1-107-nodesc-highlight">
      <LineStyle>
        <color>ffd18802</color>
        <width>0.0015</width>
      </LineStyle>
      <PolyStyle>
        <color>6bd18802</color>
        <fill>1</fill>
        <outline>1</outline>
      </PolyStyle>
      <BalloonStyle>
        <text><![CDATA[<h3>$[name]</h3>]]></text>
      </BalloonStyle>
    </Style>
    <StyleMap id="poly-0288D1-1-107-nodesc">
      <Pair>
        <key>normal</key>
        <styleUrl>#poly-0288D1-1-107-nodesc-normal</styleUrl>
      </Pair>
      <Pair>
        <key>highlight</key>
        <styleUrl>#poly-0288D1-1-107-nodesc-highlight</styleUrl>
      </Pair>
    </StyleMap>
    <Style id="poly-0288D1-1-110-nodesc-normal">
      <LineStyle>
        <color>ffd18802</color>
        <width>0.001</width>
      </LineStyle>
      <PolyStyle>
        <color>6ed18802</color>
        <fill>1</fill>
        <outline>1</outline>
      </PolyStyle>
      <BalloonStyle>
        <text><![CDATA[<h3>$[name]</h3>]]></text>
      </BalloonStyle>
    </Style>
    <Style id="poly-0288D1-1-110-nodesc-highlight">
      <LineStyle>
        <color>ffd18802</color>
        <width>0.0015</width>
      </LineStyle>
      <PolyStyle>
        <color>6ed18802</color>
        <fill>1</fill>
        <outline>1</outline>
      </PolyStyle>
      <BalloonStyle>
        <text><![CDATA[<h3>$[name]</h3>]]></text>
      </BalloonStyle>
    </Style>
    <StyleMap id="poly-0288D1-1-110-nodesc">
      <Pair>
        <key>normal</key>
        <styleUrl>#poly-0288D1-1-110-nodesc-normal</styleUrl>
      </Pair>
      <Pair>
        <key>highlight</key>
        <styleUrl>#poly-0288D1-1-110-nodesc-highlight</styleUrl>
      </Pair>
    </StyleMap>
    <Style id="poly-0288D1-1-77-nodesc-normal">
      <LineStyle>
        <color>ffd18802</color>
        <width>0.001</width>
      </LineStyle>
      <PolyStyle>
        <color>4dd18802</color>
        <fill>1</fill>
        <outline>1</outline>
      </PolyStyle>
      <BalloonStyle>
        <text><![CDATA[<h3>$[name]</h3>]]></text>
      </BalloonStyle>
    </Style>
    <Style id="poly-0288D1-1-77-nodesc-highlight">
      <LineStyle>
        <color>ffd18802</color>
        <width>0.0015</width>
      </LineStyle>
      <PolyStyle>
        <color>4dd18802</color>
        <fill>1</fill>
        <outline>1</outline>
      </PolyStyle>
      <BalloonStyle>
        <text><![CDATA[<h3>$[name]</h3>]]></text>
      </BalloonStyle>
    </Style>
    <StyleMap id="poly-0288D1-1-77-nodesc">
      <Pair>
        <key>normal</key>
        <styleUrl>#poly-0288D1-1-77-nodesc-normal</styleUrl>
      </Pair>
      <Pair>
        <key>highlight</key>
        <styleUrl>#poly-0288D1-1-77-nodesc-highlight</styleUrl>
      </Pair>
    </StyleMap>
    <Style id="poly-0288D1-1-94-nodesc-normal">
      <LineStyle>
        <color>ffd18802</color>
        <width>0.001</width>
      </LineStyle>
      <PolyStyle>
        <color>5ed18802</color>
        <fill>1</fill>
        <outline>1</outline>
      </PolyStyle>
      <BalloonStyle>
        <text><![CDATA[<h3>$[name]</h3>]]></text>
      </BalloonStyle>
    </Style>
    <Style id="poly-0288D1-1-94-nodesc-highlight">
      <LineStyle>
        <color>ffd18802</color>
        <width>0.0015</width>
      </LineStyle>
      <PolyStyle>
        <color>5ed18802</color>
        <fill>1</fill>
        <outline>1</outline>
      </PolyStyle>
      <BalloonStyle>
        <text><![CDATA[<h3>$[name]</h3>]]></text>
      </BalloonStyle>
    </Style>
    <StyleMap id="poly-0288D1-1-94-nodesc">
      <Pair>
        <key>normal</key>
        <styleUrl>#poly-0288D1-1-94-nodesc-normal</styleUrl>
      </Pair>
      <Pair>
        <key>highlight</key>
        <styleUrl>#poly-0288D1-1-94-nodesc-highlight</styleUrl>
      </Pair>
    </StyleMap>
    <Style id="poly-0288D1-1-97-nodesc-normal">
      <LineStyle>
        <color>ffd18802</color>
        <width>0.001</width>
      </LineStyle>
      <PolyStyle>
        <color>61d18802</color>
        <fill>1</fill>
        <outline>1</outline>
      </PolyStyle>
      <BalloonStyle>
        <text><![CDATA[<h3>$[name]</h3>]]></text>
      </BalloonStyle>
    </Style>
    <Style id="poly-0288D1-1-97-nodesc-highlight">
      <LineStyle>
        <color>ffd18802</color>
        <width>0.0015</width>
      </LineStyle>
      <PolyStyle>
        <color>61d18802</color>
        <fill>1</fill>
        <outline>1</outline>
      </PolyStyle>
      <BalloonStyle>
        <text><![CDATA[<h3>$[name]</h3>]]></text>
      </BalloonStyle>
    </Style>
    <StyleMap id="poly-0288D1-1-97-nodesc">
      <Pair>
        <key>normal</key>
        <styleUrl>#poly-0288D1-1-97-nodesc-normal</styleUrl>
      </Pair>
      <Pair>
        <key>highlight</key>
        <styleUrl>#poly-0288D1-1-97-nodesc-highlight</styleUrl>
      </Pair>
    </StyleMap>
    <Style id="poly-0288D1-1-99-nodesc-normal">
      <LineStyle>
        <color>ffd18802</color>
        <width>0.001</width>
      </LineStyle>
      <PolyStyle>
        <color>63d18802</color>
        <fill>1</fill>
        <outline>1</outline>
      </PolyStyle>
      <BalloonStyle>
        <text><![CDATA[<h3>$[name]</h3>]]></text>
      </BalloonStyle>
    </Style>
    <Style id="poly-0288D1-1-99-nodesc-highlight">
      <LineStyle>
        <color>ffd18802</color>
        <width>0.0015</width>
      </LineStyle>
      <PolyStyle>
        <color>63d18802</color>
        <fill>1</fill>
        <outline>1</outline>
      </PolyStyle>
      <BalloonStyle>
        <text><![CDATA[<h3>$[name]</h3>]]></text>
      </BalloonStyle>
    </Style>
    <StyleMap id="poly-0288D1-1-99-nodesc">
      <Pair>
        <key>normal</key>
        <styleUrl>#poly-0288D1-1-99-nodesc-normal</styleUrl>
      </Pair>
      <Pair>
        <key>highlight</key>
        <styleUrl>#poly-0288D1-1-99-nodesc-highlight</styleUrl>
      </Pair>
    </StyleMap>
    <Placemark>
      <name>Polygon 1</name>
      <styleUrl>#poly-0288D1-1-99-nodesc</styleUrl>
      <Polygon>
        <outerBoundaryIs>
          <LinearRing>
            <tessellate>1</tessellate>
            <coordinates>
              98.969071,18.60604,0
              98.969387,18.604977,0
              98.969522,18.603885,0
              98.969356,18.603096,0
              98.968657,18.602008,0
              98.97046,18.60335,0
              98.972134,18.605261,0
              98.974623,18.608149,0
              98.975953,18.609979,0
              98.977584,18.612379,0
              98.979386,18.614331,0
              98.981489,18.614982,0
              98.984064,18.614697,0
              98.986296,18.614738,0
              98.987626,18.616893,0
              98.989943,18.619293,0
              98.990587,18.620757,0
              98.991446,18.623075,0
              98.990458,18.623848,0
              98.988871,18.623278,0
              98.987111,18.621692,0
              98.985094,18.620147,0
              98.982133,18.618032,0
              98.981704,18.61791,0
              98.979043,18.617219,0
              98.977927,18.615958,0
              98.976983,18.613802,0
              98.975438,18.611566,0
              98.973721,18.609369,0
              98.972305,18.60758,0
              98.970846,18.606238,0
              98.969071,18.60604,0
            </coordinates>
          </LinearRing>
        </outerBoundaryIs>
      </Polygon>
    </Placemark>
    <Placemark>
      <name>Polygon 2</name>
      <styleUrl>#poly-0288D1-1-105-nodesc</styleUrl>
      <Polygon>
        <outerBoundaryIs>
          <LinearRing>
            <tessellate>1</tessellate>
            <coordinates>
              98.943291,18.56309,0
              98.94003,18.563903,0
              98.938571,18.563903,0
              98.93797,18.560812,0
              98.936854,18.557557,0
              98.935223,18.556987,0
              98.93282,18.555523,0
              98.933249,18.552593,0
              98.933678,18.549827,0
              98.932992,18.548443,0
              98.931876,18.544537,0
              98.933936,18.54291,0
              98.93591,18.54234,0
              98.939944,18.54112,0
              98.942004,18.538841,0
              98.944407,18.533633,0
              98.948441,18.531761,0
              98.954964,18.530703,0
              98.958913,18.533877,0
              98.961058,18.536807,0
              98.963891,18.53762,0
              98.9711,18.53697,0
              98.976164,18.539899,0
              98.979598,18.540631,0
              98.986293,18.541364,0
              98.992215,18.54527,0
              98.995991,18.548362,0
              98.996506,18.553895,0
              98.997708,18.558208,0
              99.000197,18.560242,0
              99.003974,18.561056,0
              99.008265,18.560242,0
              99.010497,18.561625,0
              99.009724,18.563985,0
              99.007664,18.564148,0
              99.005347,18.564717,0
              99.006978,18.564961,0
              99.009896,18.565205,0
              99.010497,18.56667,0
              99.007836,18.567239,0
              99.005604,18.567728,0
              99.003201,18.568785,0
              98.999425,18.571226,0
              98.996077,18.569111,0
              98.993245,18.566751,0
              98.992472,18.563496,0
              98.994876,18.560242,0
              98.995219,18.559347,0
              98.993416,18.557882,0
              98.991099,18.558126,0
              98.987322,18.559835,0
              98.983117,18.55951,0
              98.980284,18.555685,0
              98.977194,18.552756,0
              98.973332,18.550071,0
              98.967582,18.54706,0
              98.964148,18.545514,0
              98.960801,18.545107,0
              98.958827,18.546328,0
              98.95814,18.551291,0
              98.955136,18.553082,0
              98.95402,18.555116,0
              98.955994,18.560079,0
              98.959771,18.567483,0
              98.960887,18.571958,0
              98.960458,18.57505,0
              98.958913,18.575864,0
              98.956252,18.574969,0
              98.954621,18.572609,0
              98.952733,18.570168,0
              98.949729,18.566832,0
              98.948441,18.566019,0
              98.945609,18.564392,0
              98.943291,18.56309,0
            </coordinates>
          </LinearRing>
        </outerBoundaryIs>
      </Polygon>
    </Placemark>
    <Placemark>
      <name>Polygon 3</name>
      <styleUrl>#poly-0288D1-1-99-nodesc</styleUrl>
      <Polygon>
        <outerBoundaryIs>
          <LinearRing>
            <tessellate>1</tessellate>
            <coordinates>
              99.010291,18.566939,0
              99.010334,18.566247,0
              99.011106,18.566369,0
              99.01175,18.56759,0
              99.014024,18.567997,0
              99.01617,18.568078,0
              99.019904,18.569217,0
              99.020118,18.571292,0
              99.019045,18.572919,0
              99.017972,18.575238,0
              99.017844,18.577719,0
              99.018573,18.580282,0
              99.019603,18.581746,0
              99.021105,18.583455,0
              99.022994,18.585814,0
              99.02441,18.587726,0
              99.022135,18.587482,0
              99.019861,18.586018,0
              99.018616,18.584716,0
              99.016342,18.582926,0
              99.015483,18.582194,0
              99.013853,18.581828,0
              99.010763,18.580933,0
              99.009389,18.579224,0
              99.009561,18.576662,0
              99.009561,18.574628,0
              99.00999,18.572878,0
              99.011364,18.569664,0
              99.011492,18.567915,0
              99.010291,18.566939,0
            </coordinates>
          </LinearRing>
        </outerBoundaryIs>
      </Polygon>
    </Placemark>
    <Placemark>
      <name>Polygon 4</name>
      <styleUrl>#poly-0288D1-1-107-nodesc</styleUrl>
      <Polygon>
        <outerBoundaryIs>
          <LinearRing>
            <tessellate>1</tessellate>
            <coordinates>
              99.030836,18.596789,0
              99.030536,18.595976,0
              99.029849,18.594918,0
              99.029077,18.593901,0
              99.031051,18.594634,0
              99.032596,18.593983,0
              99.034827,18.594715,0
              99.036973,18.598416,0
              99.036458,18.60106,0
              99.034742,18.602687,0
              99.033154,18.60289,0
              99.033025,18.602402,0
              99.032639,18.601101,0
              99.031652,18.599718,0
              99.030879,18.597888,0
              99.030836,18.596789,0
            </coordinates>
          </LinearRing>
        </outerBoundaryIs>
      </Polygon>
    </Placemark>
    <Placemark>
      <name>Polygon 5</name>
      <styleUrl>#poly-0288D1-1-99-nodesc</styleUrl>
      <Polygon>
        <outerBoundaryIs>
          <LinearRing>
            <tessellate>1</tessellate>
            <coordinates>
              99.013507,18.671949,0
              99.013342,18.669966,0
              99.013377,18.667016,0
              99.013549,18.664576,0
              99.012347,18.661892,0
              99.011746,18.657339,0
              99.012604,18.653842,0
              99.01475,18.650589,0
              99.01475,18.6488,0
              99.013978,18.646197,0
              99.014664,18.644002,0
              99.017411,18.642538,0
              99.018269,18.640098,0
              99.020844,18.638227,0
              99.021531,18.635056,0
              99.018355,18.633592,0
              99.015866,18.630582,0
              99.016553,18.628305,0
              99.018355,18.625052,0
              99.019299,18.622123,0
              99.020758,18.618544,0
              99.022389,18.616267,0
              99.024363,18.617243,0
              99.025822,18.620822,0
              99.027196,18.62497,0
              99.027711,18.626272,0
              99.029685,18.626353,0
              99.033032,18.625865,0
              99.033976,18.627329,0
              99.032603,18.628468,0
              99.031573,18.629688,0
              99.033204,18.631396,0
              99.035436,18.630501,0
              99.038354,18.629525,0
              99.040328,18.629769,0
              99.040156,18.633104,0
              99.041014,18.635543,0
              99.040585,18.637983,0
              99.037152,18.639773,0
              99.03741,18.641968,0
              99.035779,18.64327,0
              99.033376,18.643676,0
              99.030543,18.644978,0
              99.029342,18.646604,0
              99.029342,18.65002,0
              99.029685,18.653029,0
              99.031144,18.654167,0
              99.034749,18.65498,0
              99.036208,18.656363,0
              99.03535,18.658965,0
              99.034749,18.661405,0
              99.035693,18.664169,0
              99.03595,18.665064,0
              99.033805,18.666365,0
              99.031316,18.667422,0
              99.030543,18.669862,0
              99.030282,18.671342,0
              99.029465,18.671256,0
              99.02719,18.671541,0
              99.022556,18.671886,0
              99.021075,18.672334,0
              99.020088,18.672984,0
              99.018684,18.673131,0
              99.017398,18.673229,0
              99.016495,18.672724,0
              99.015453,18.672476,0
              99.014187,18.672374,0
              99.013522,18.672191,0
              99.013507,18.671949,0
            </coordinates>
          </LinearRing>
        </outerBoundaryIs>
      </Polygon>
    </Placemark>
    <Placemark>
      <name>Polygon 6</name>
      <styleUrl>#poly-0288D1-1-94-nodesc</styleUrl>
      <Polygon>
        <outerBoundaryIs>
          <LinearRing>
            <tessellate>1</tessellate>
            <coordinates>
              99.046447,18.666644,0
              99.042175,18.668046,0
              99.043786,18.666563,0
              99.043701,18.664368,0
              99.043786,18.661765,0
              99.041984,18.658513,0
              99.041898,18.654365,0
              99.042413,18.651194,0
              99.044473,18.648835,0
              99.046276,18.646965,0
              99.04928,18.644932,0
              99.051511,18.643468,0
              99.053056,18.641516,0
              99.05194,18.639076,0
              99.052713,18.635172,0
              99.054258,18.633302,0
              99.056661,18.633139,0
              99.059579,18.635742,0
              99.058378,18.640052,0
              99.058721,18.642655,0
              99.061296,18.645013,0
              99.062498,18.646802,0
              99.061124,18.649323,0
              99.061382,18.65282,0
              99.061382,18.656236,0
              99.061468,18.658838,0
              99.058893,18.659976,0
              99.056146,18.660952,0
              99.055288,18.663148,0
              99.055202,18.664937,0
              99.051511,18.666428,0
              99.05134,18.664612,0
              99.051511,18.661034,0
              99.052713,18.657781,0
              99.054,18.656317,0
              99.05297,18.653877,0
              99.053314,18.652088,0
              99.053657,18.649892,0
              99.052198,18.650055,0
              99.04928,18.651194,0
              99.04722,18.653471,0
              99.046791,18.656724,0
              99.046533,18.659326,0
              99.046276,18.661034,0
              99.045932,18.664449,0
              99.046447,18.666644,0
            </coordinates>
          </LinearRing>
        </outerBoundaryIs>
      </Polygon>
    </Placemark>
    <Placemark>
      <name>Polygon 7</name>
      <styleUrl>#poly-0288D1-1-99-nodesc</styleUrl>
      <Polygon>
        <outerBoundaryIs>
          <LinearRing>
            <tessellate>1</tessellate>
            <coordinates>
              99.046744,18.666693,0
              99.045932,18.664449,0
              99.04722,18.653471,0
              99.04928,18.651194,0
              99.053657,18.649892,0
              99.052924,18.654129,0
              99.05361,18.656528,0
              99.052494,18.658032,0
              99.052151,18.659415,0
              99.051511,18.661034,0
              99.051293,18.666083,0
              99.046744,18.666693,0
            </coordinates>
          </LinearRing>
        </outerBoundaryIs>
      </Polygon>
    </Placemark>
    <Placemark>
      <name>Polygon 8</name>
      <styleUrl>#poly-0288D1-1-102-nodesc</styleUrl>
      <Polygon>
        <outerBoundaryIs>
          <LinearRing>
            <tessellate>1</tessellate>
            <coordinates>
              99.021105,18.583455,0
              99.018342,18.579633,0
              99.017742,18.575972,0
              99.019045,18.572919,0
              99.020118,18.571292,0
              99.019904,18.569217,0
              99.022205,18.567998,0
              99.024179,18.567998,0
              99.025295,18.570846,0
              99.026496,18.572148,0
              99.02684,18.574589,0
              99.024865,18.576053,0
              99.023235,18.577843,0
              99.021432,18.580365,0
              99.021105,18.583455,0
            </coordinates>
          </LinearRing>
        </outerBoundaryIs>
      </Polygon>
    </Placemark>
    <Placemark>
      <name>Polygon 9</name>
      <styleUrl>#poly-0288D1-1-110-nodesc</styleUrl>
      <Polygon>
        <outerBoundaryIs>
          <LinearRing>
            <tessellate>1</tessellate>
            <coordinates>
              99.02441,18.587726,0
              99.023876,18.587023,0
              99.023994,18.587064,0
              99.024508,18.587308,0
              99.024819,18.58784,0
              99.025377,18.588613,0
              99.025742,18.589162,0
              99.026128,18.589976,0
              99.026557,18.590444,0
              99.027351,18.591542,0
              99.028145,18.592864,0
              99.02881,18.593393,0
              99.029304,18.593982,0
              99.029175,18.594186,0
              99.027802,18.592742,0
              99.02718,18.591786,0
              99.026514,18.590789,0
              99.025871,18.59024,0
              99.02557,18.589549,0
              99.025227,18.588898,0
              99.02441,18.587726,0
            </coordinates>
          </LinearRing>
        </outerBoundaryIs>
      </Polygon>
    </Placemark>
    <Placemark>
      <name>Polygon 10</name>
      <styleUrl>#poly-0288D1-1-99-nodesc</styleUrl>
      <Polygon>
        <outerBoundaryIs>
          <LinearRing>
            <tessellate>1</tessellate>
            <coordinates>
              99.033938,18.654884,0
              99.035826,18.654071,0
              99.037715,18.651306,0
              99.039174,18.649029,0
              99.041835,18.648053,0
              99.043208,18.64789,0
              99.044924,18.64789,0
              99.042413,18.651194,0
              99.041577,18.653095,0
              99.041577,18.657974,0
              99.043786,18.661765,0
              99.043294,18.66757,0
              99.04029,18.668871,0
              99.034539,18.670091,0
              99.030282,18.671342,0
              99.031316,18.667422,0
              99.035312,18.665456,0
              99.034749,18.661405,0
              99.036208,18.656363,0
              99.033938,18.654884,0
            </coordinates>
          </LinearRing>
        </outerBoundaryIs>
      </Polygon>
    </Placemark>
    <Placemark>
      <name>Polygon 11</name>
      <styleUrl>#poly-0288D1-1-105-nodesc</styleUrl>
      <Polygon>
        <outerBoundaryIs>
          <LinearRing>
            <tessellate>1</tessellate>
            <coordinates>
              98.980213,18.591028,0
              98.980073,18.590886,0
              98.985581,18.587915,0
              98.98605,18.588343,0
              98.986736,18.589807,0
              98.988453,18.590621,0
              98.991285,18.592573,0
              98.993603,18.59542,0
              98.995148,18.597454,0
              98.995834,18.599,0
              98.996864,18.600057,0
              98.999096,18.601522,0
              99.000898,18.603392,0
              99.002786,18.605589,0
              99.004246,18.607866,0
              99.006735,18.61047,0
              99.006048,18.613072,0
              99.00416,18.611283,0
              99.000555,18.608924,0
              98.998667,18.607866,0
              98.995233,18.605264,0
              98.993345,18.603637,0
              98.988968,18.600057,0
              98.98605,18.596885,0
              98.984505,18.593956,0
              98.980213,18.591028,0
            </coordinates>
          </LinearRing>
        </outerBoundaryIs>
      </Polygon>
    </Placemark>
    <Placemark>
      <name>Polygon 13</name>
      <styleUrl>#poly-0288D1-1-97-nodesc</styleUrl>
      <Polygon>
        <outerBoundaryIs>
          <LinearRing>
            <tessellate>1</tessellate>
            <coordinates>
              98.955041,18.573397,0
              98.956252,18.574969,0
              98.958913,18.575864,0
              98.960458,18.57505,0
              98.960887,18.571958,0
              98.962404,18.574247,0
              98.964035,18.575712,0
              98.96618,18.578071,0
              98.966695,18.578722,0
              98.968326,18.579942,0
              98.969442,18.580431,0
              98.971931,18.580349,0
              98.973133,18.579942,0
              98.974935,18.57921,0
              98.976394,18.578315,0
              98.978111,18.578071,0
              98.979827,18.579292,0
              98.980514,18.580512,0
              98.981716,18.582464,0
              98.982917,18.584173,0
              98.984376,18.585556,0
              98.98575,18.587264,0
              98.985581,18.587915,0
              98.980073,18.590886,0
              98.978194,18.591927,0
              98.977872,18.591724,0
              98.975855,18.591073,0
              98.974181,18.590097,0
              98.972722,18.588632,0
              98.971435,18.586558,0
              98.970362,18.585256,0
              98.969546,18.584442,0
              98.968044,18.582653,0
              98.9665,18.581351,0
              98.965641,18.57948,0
              98.964954,18.57891,0
              98.964289,18.578666,0
              98.963839,18.578686,0
              98.962766,18.579053,0
              98.962015,18.579215,0
              98.961478,18.579154,0
              98.961135,18.578931,0
              98.961006,18.578524,0
              98.960234,18.577385,0
              98.959118,18.577751,0
              98.958517,18.578605,0
              98.958689,18.580029,0
              98.958517,18.58068,0
              98.957573,18.580558,0
              98.9568,18.580394,0
              98.956199,18.579214,0
              98.956114,18.577384,0
              98.956264,18.576814,0
              98.956371,18.576529,0
              98.956371,18.576285,0
              98.95577,18.575797,0
              98.955169,18.574577,0
              98.955041,18.573397,0
            </coordinates>
          </LinearRing>
        </outerBoundaryIs>
      </Polygon>
    </Placemark>
    <Placemark>
      <name>Polygon 14</name>
      <styleUrl>#poly-0288D1-1-102-nodesc</styleUrl>
      <Polygon>
        <outerBoundaryIs>
          <LinearRing>
            <tessellate>1</tessellate>
            <coordinates>
              98.967596,18.55101,0
              98.971286,18.553044,0
              98.974376,18.555648,0
              98.977724,18.559228,0
              98.981414,18.562158,0
              98.984418,18.564924,0
              98.989053,18.567446,0
              98.990426,18.568585,0
              98.991542,18.57005,0
              98.990083,18.571677,0
              98.991971,18.574606,0
              98.993001,18.576721,0
              98.993345,18.57965,0
              98.994632,18.581277,0
              98.996606,18.585101,0
              98.997636,18.588274,0
              98.998494,18.58982,0
              99.000554,18.592179,0
              99.003129,18.593643,0
              99.004846,18.595758,0
              99.006992,18.597304,0
              99.008108,18.599012,0
              99.009652,18.600232,0
              99.009516,18.601633,0
              99.009238,18.602284,0
              99.007478,18.60025,0
              99.005912,18.598765,0
              99.005118,18.598033,0
              99.001963,18.594962,0
              98.999474,18.593051,0
              98.997672,18.591261,0
              98.996642,18.589227,0
              98.99514,18.586827,0
              98.993209,18.583166,0
              98.990634,18.580888,0
              98.990204,18.577308,0
              98.989947,18.574298,0
              98.986685,18.572427,0
              98.984025,18.572834,0
              98.982566,18.573485,0
              98.982823,18.575681,0
              98.980935,18.574298,0
              98.978875,18.573159,0
              98.977072,18.572996,0
              98.974583,18.572183,0
              98.972781,18.571776,0
              98.970721,18.570556,0
              98.969176,18.570149,0
              98.96806,18.569416,0
              98.966,18.568196,0
              98.965314,18.567464,0
              98.96334,18.566081,0
              98.963254,18.564535,0
              98.963168,18.563558,0
              98.961194,18.56543,0
              98.960164,18.566081,0
              98.959306,18.566732,0
              98.958335,18.56485,0
              98.956962,18.561433,0
              98.955994,18.560079,0
              98.954387,18.556713,0
              98.954644,18.554272,0
              98.956447,18.552808,0
              98.95814,18.551291,0
              98.958335,18.549227,0
              98.958678,18.547274,0
              98.959536,18.545728,0
              98.961854,18.545484,0
              98.965545,18.54581,0
              98.967862,18.547925,0
              98.967596,18.55101,0
            </coordinates>
          </LinearRing>
        </outerBoundaryIs>
      </Polygon>
    </Placemark>
    <Placemark>
      <name>Polygon 15</name>
      <styleUrl>#poly-0288D1-1-99-nodesc</styleUrl>
      <Polygon>
        <outerBoundaryIs>
          <LinearRing>
            <tessellate>1</tessellate>
            <coordinates>
              98.95443,18.55599,0
              98.95402,18.555116,0
              98.955136,18.553082,0
              98.957863,18.551433,0
              98.954644,18.554272,0
              98.95443,18.55599,0
            </coordinates>
          </LinearRing>
        </outerBoundaryIs>
      </Polygon>
    </Placemark>
    <Placemark>
      <name>Polygon 16</name>
      <styleUrl>#poly-0288D1-1-102-nodesc</styleUrl>
      <Polygon>
        <outerBoundaryIs>
          <LinearRing>
            <tessellate>1</tessellate>
            <coordinates>
              98.958709,18.547135,0
              98.958827,18.546328,0
              98.959331,18.545986,0
              98.958709,18.547135,0
            </coordinates>
          </LinearRing>
        </outerBoundaryIs>
      </Polygon>
    </Placemark>
    <Placemark>
      <name>Polygon 17</name>
      <styleUrl>#poly-0288D1-1-97-nodesc</styleUrl>
      <Polygon>
        <outerBoundaryIs>
          <LinearRing>
            <tessellate>1</tessellate>
            <coordinates>
              98.959875,18.545689,0
              98.960841,18.545094,0
              98.964148,18.545514,0
              98.964612,18.545715,0
              98.961854,18.545484,0
              98.959875,18.545689,0
            </coordinates>
          </LinearRing>
        </outerBoundaryIs>
      </Polygon>
    </Placemark>
    <Placemark>
      <name>Polygon 18</name>
      <styleUrl>#poly-0288D1-1-102-nodesc</styleUrl>
      <Polygon>
        <outerBoundaryIs>
          <LinearRing>
            <tessellate>1</tessellate>
            <coordinates>
              98.969071,18.60604,0
              98.970846,18.606238,0
              98.972305,18.60758,0
              98.973108,18.609234,0
              98.976456,18.613138,0
              98.977314,18.61509,0
              98.978258,18.616555,0
              98.98109,18.6181,0
              98.984352,18.619645,0
              98.987111,18.621692,0
              98.988871,18.623278,0
              98.990458,18.623848,0
              98.991446,18.623075,0
              98.992678,18.624526,0
              98.995167,18.626559,0
              98.997227,18.627616,0
              99.000917,18.629812,0
              99.001947,18.63274,0
              99.002548,18.635831,0
              99.004179,18.637864,0
              99.006582,18.64006,0
              99.008556,18.642663,0
              99.011818,18.643232,0
              99.012075,18.645997,0
              99.01156,18.649901,0
              99.01199,18.654048,0
              99.011746,18.657339,0
              99.012347,18.661892,0
              99.013523,18.664647,0
              99.013384,18.666202,0
              99.01333,18.667575,0
              99.013287,18.669709,0
              99.013486,18.672164,0
              99.013341,18.672201,0
              99.011689,18.672221,0
              99.010938,18.671937,0
              99.009758,18.670432,0
              99.008449,18.668013,0
              99.007483,18.666326,0
              99.005459,18.663148,0
              99.005166,18.661345,0
              99.004822,18.659943,0
              99.00493,18.658093,0
              99.004887,18.654332,0
              99.004801,18.65181,0
              99.004479,18.650291,0
              99.004436,18.648217,0
              99.004501,18.646016,0
              99.004178,18.644273,0
              99.0037,18.643163,0
              99.002805,18.642321,0
              99.000982,18.641299,0
              99.000016,18.64071,0
              98.998728,18.6401,0
              98.997656,18.639652,0
              98.996497,18.639327,0
              98.995552,18.63923,0
              98.994887,18.638763,0
              98.994705,18.637949,0
              98.994286,18.637482,0
              98.993439,18.637589,0
              98.992892,18.637924,0
              98.992388,18.638366,0
              98.989362,18.637299,0
              98.988622,18.636938,0
              98.988188,18.636728,0
              98.986761,18.636352,0
              98.984963,18.636241,0
              98.984186,18.635539,0
              98.983483,18.63496,0
              98.982563,18.634471,0
              98.980049,18.634574,0
              98.979448,18.634991,0
              98.979116,18.635113,0
              98.978365,18.634849,0
              98.978017,18.633983,0
              98.977781,18.633241,0
              98.977598,18.632753,0
              98.977684,18.632428,0
              98.977753,18.632104,0
              98.977719,18.631651,0
              98.977427,18.630913,0
              98.977341,18.630415,0
              98.977405,18.629724,0
              98.97715,18.628684,0
              98.97659,18.628399,0
              98.97526,18.627585,0
              98.973716,18.626265,0
              98.973157,18.624698,0
              98.970496,18.620265,0
              98.966848,18.614775,0
              98.965719,18.610486,0
              98.969071,18.60604,0
            </coordinates>
          </LinearRing>
        </outerBoundaryIs>
      </Polygon>
    </Placemark>
    <Placemark>
      <name>Polygon 19</name>
      <styleUrl>#poly-0288D1-1-97-nodesc</styleUrl>
      <Polygon>
        <outerBoundaryIs>
          <LinearRing>
            <tessellate>1</tessellate>
            <coordinates>
              99.031053,18.598482,0
              99.031652,18.599718,0
              99.032639,18.601101,0
              99.033154,18.60289,0
              99.034742,18.602687,0
              99.036458,18.60106,0
              99.036444,18.602614,0
              99.036916,18.604119,0
              99.037259,18.605705,0
              99.038676,18.606396,0
              99.041165,18.607251,0
              99.043053,18.607779,0
              99.044984,18.607332,0
              99.046744,18.606518,0
              99.048589,18.605624,0
              99.04979,18.604851,0
              99.051636,18.605502,0
              99.052966,18.607129,0
              99.053481,18.608593,0
              99.052795,18.609935,0
              99.05228,18.611643,0
              99.053181,18.613799,0
              99.05434,18.61571,0
              99.056786,18.617418,0
              99.058459,18.617906,0
              99.06033,18.618516,0
              99.060802,18.620469,0
              99.059,18.621811,0
              99.056854,18.622665,0
              99.054794,18.623234,0
              99.05355,18.624413,0
              99.053099,18.62541,0
              99.052884,18.624779,0
              99.051833,18.624495,0
              99.05076,18.624495,0
              99.04988,18.624149,0
              99.049601,18.623275,0
              99.050009,18.622319,0
              99.050867,18.621465,0
              99.051018,18.620936,0
              99.05031,18.620306,0
              99.049344,18.619655,0
              99.049129,18.618354,0
              99.049387,18.617357,0
              99.049601,18.616239,0
              99.049516,18.615283,0
              99.049164,18.61473,0
              99.047962,18.615015,0
              99.047039,18.61471,0
              99.046674,18.613693,0
              99.047082,18.612432,0
              99.046825,18.61172,0
              99.045795,18.611314,0
              99.045387,18.610561,0
              99.045044,18.609341,0
              99.044293,18.609138,0
              99.04382,18.609362,0
              99.04307,18.609585,0
              99.041568,18.609422,0
              99.041074,18.608914,0
              99.040559,18.608202,0
              99.039701,18.607796,0
              99.037877,18.607755,0
              99.037748,18.608202,0
              99.037619,18.609422,0
              99.036804,18.610602,0
              99.035645,18.612188,0
              99.035988,18.613408,0
              99.037576,18.614669,0
              99.038349,18.616703,0
              99.038478,18.619021,0
              99.039937,18.620729,0
              99.042597,18.622518,0
              99.043713,18.624308,0
              99.0441,18.626626,0
              99.044572,18.628659,0
              99.045773,18.629798,0
              99.047018,18.63118,0
              99.047876,18.632929,0
              99.048606,18.634474,0
              99.048863,18.63667,0
              99.048434,18.638134,0
              99.047962,18.639802,0
              99.048606,18.641591,0
              99.049721,18.643055,0
              99.05015,18.64399,0
              99.049378,18.644681,0
              99.048091,18.645454,0
              99.047962,18.644437,0
              99.047361,18.643421,0
              99.04646,18.642811,0
              99.045172,18.641753,0
              99.044829,18.640493,0
              99.045773,18.638012,0
              99.046288,18.637118,0
              99.046589,18.635369,0
              99.046417,18.633905,0
              99.045902,18.632441,0
              99.044958,18.631709,0
              99.043241,18.63057,0
              99.041868,18.62935,0
              99.041997,18.627642,0
              99.04161,18.625243,0
              99.04028,18.62382,0
              99.03895,18.622844,0
              99.037061,18.621258,0
              99.036246,18.619753,0
              99.036031,18.618248,0
              99.035345,18.616581,0
              99.034658,18.615808,0
              99.033628,18.615238,0
              99.031697,18.6141,0
              99.030023,18.612676,0
              99.029036,18.610317,0
              99.028221,18.60926,0
              99.027105,18.607308,0
              99.027448,18.60442,0
              99.028521,18.602712,0
              99.030195,18.601491,0
              99.031053,18.598482,0
            </coordinates>
          </LinearRing>
        </outerBoundaryIs>
      </Polygon>
    </Placemark>
    <Placemark>
      <name>Polygon 20</name>
      <styleUrl>#poly-0288D1-1-77-nodesc</styleUrl>
      <Polygon>
        <outerBoundaryIs>
          <LinearRing>
            <tessellate>1</tessellate>
            <coordinates>
              99.041984,18.658513,0
              99.041577,18.657974,0
              99.041577,18.653095,0
              99.04224,18.651667,0
              99.041898,18.654365,0
              99.041984,18.658513,0
            </coordinates>
          </LinearRing>
        </outerBoundaryIs>
      </Polygon>
    </Placemark>
    <Placemark>
      <name>Polygon 21</name>
      <styleUrl>#poly-0288D1-1-102-nodesc</styleUrl>
      <Polygon>
        <outerBoundaryIs>
          <LinearRing>
            <tessellate>1</tessellate>
            <coordinates>
              99.043355,18.666911,0
              99.043752,18.661982,0
              99.043786,18.666563,0
              99.043355,18.666911,0
            </coordinates>
          </LinearRing>
        </outerBoundaryIs>
      </Polygon>
    </Placemark>
    <Placemark>
      <name>Polygon 21</name>
      <styleUrl>#poly-0288D1-1-99-nodesc</styleUrl>
      <Polygon>
        <outerBoundaryIs>
          <LinearRing>
            <tessellate>1</tessellate>
            <coordinates>
              98.902243,18.5253807,0
              98.9084442,18.5258283,0
              98.9124783,18.5259911,0
              98.9179715,18.5267235,0
              98.9239796,18.529165,0
              98.9279278,18.532583,0
              98.931361,18.5342105,0
              98.9344509,18.5355126,0
              98.93694,18.5374657,0
              98.93694,18.538605,0
              98.9353093,18.5397442,0
              98.9341076,18.540558,0
              98.9321335,18.5411276,0
              98.9297303,18.541209,0
              98.9277562,18.5400697,0
              98.9255246,18.5380353,0
              98.9224346,18.5358381,0
              98.9189156,18.535594,0
              98.9162548,18.536245,0
              98.9135941,18.5358381,0
              98.9113625,18.5337223,0
              98.9093026,18.5310367,0
              98.9066418,18.5289208,0
              98.9042385,18.5273746,0
              98.9021786,18.526398,0
              98.902243,18.5253807,0
            </coordinates>
          </LinearRing>
        </outerBoundaryIs>
      </Polygon>
    </Placemark>
    <Placemark>
      <name>Polygon 25</name>
      <styleUrl>#poly-0288D1-1-99-nodesc</styleUrl>
      <Polygon>
        <outerBoundaryIs>
          <LinearRing>
            <tessellate>1</tessellate>
            <coordinates>
              98.9723144,18.6076481,0
              98.975311,18.6114392,0
              98.9765098,18.6131143,0
              98.976456,18.613138,0
              98.973108,18.609234,0
              98.9723144,18.6076481,0
            </coordinates>
          </LinearRing>
        </outerBoundaryIs>
      </Polygon>
    </Placemark>
    <Placemark>
      <name>Polygon 26</name>
      <styleUrl>#poly-0288D1-1-102-nodesc</styleUrl>
      <Polygon>
        <outerBoundaryIs>
          <LinearRing>
            <tessellate>1</tessellate>
            <coordinates>
              98.976456,18.613138,0
              98.9765098,18.6131143,0
              98.976983,18.613802,0
              98.977927,18.615958,0
              98.9786047,18.6167207,0
              98.978258,18.616555,0
              98.977314,18.61509,0
              98.976456,18.613138,0
            </coordinates>
          </LinearRing>
        </outerBoundaryIs>
      </Polygon>
    </Placemark>
    <Placemark>
      <name>Polygon 27</name>
      <styleUrl>#poly-0288D1-1-102-nodesc</styleUrl>
      <Polygon>
        <outerBoundaryIs>
          <LinearRing>
            <tessellate>1</tessellate>
            <coordinates>
              98.9799514,18.6174743,0
              98.982133,18.618032,0
              98.984352,18.619645,0
              98.9813676,18.6182064,0
              98.98109,18.6181,0
              98.9799514,18.6174743,0
            </coordinates>
          </LinearRing>
        </outerBoundaryIs>
      </Polygon>
    </Placemark>
  </Document>
</kml>


